summary overcast 850 feet


KSZT 100055Z AUTO 00000KT 10SM OVC085 M05/M14 A3009 RMK AO2
KSZT 100035Z AUTO 00000KT 10SM OVC085 M05/M17 A3009 RMK AO2
KSZT 100015Z AUTO 36003KT 10SM OVC085 M05/M18 A3009 RMK AO2
KSZT 092355Z AUTO 36003KT 10SM OVC085 M04/M18 A3008 RMK AO2
KSZT 092335Z AUTO 00000KT 10SM BKN085 M04/M17 A3009 RMK AO2
